{
  "type": "FeatureCollection",
  "features": [
    {
      "type": "Feature",
      "properties": {
        "norad_id": 64902,
        "name": "CO3D 2",
        "group": "resource",
        "lat": -34.44518805991564,
        "lon": -126.56588463328157,
        "alt_km": 511.8541823394489,
        "timestamp": "2025-12-08T05:48:08.705678+00:00",
        "meta_object_name": "CO3D 2",
        "meta_object_id": "2025-156D",
        "meta_epoch": "2025-12-07T22:32:31.363296",
        "meta_mean_motion": 15.2020445,
        "meta_eccentricity": 8.473e-05,
        "meta_inclination": 97.4343,
        "meta_ra_of_asc_node": 58.2742,
        "meta_arg_of_pericenter": 91.1566,
        "meta_mean_anomaly": 268.9766,
        "meta_ephemeris_type": 0,
        "meta_classification_type": "U",
        "meta_norad_cat_id": 64902,
        "meta_element_set_no": 999,
        "meta_rev_at_epoch": 2047,
        "meta_bstar": 2.6258745e-05,
        "meta_mean_motion_dot": 5.01e-06,
        "meta_mean_motion_ddot": 0,
        "tle_line1": "1 64902U 25156D   25341.93925189  .00000501  00000+0  26259-4 0  9994",
        "tle_line2": "2 64902  97.4343  58.2742 0000847  91.1566 268.9766 15.20204450 20478"
      },
      "geometry": {
        "type": "Point",
        "coordinates": [
          -126.56588463328157,
          -34.44518805991564
        ]
      }
    },
    {
      "type": "Feature",
      "properties": {
        "norad_id": 64903,
        "name": "CO3D 1",
        "group": "resource",
        "lat": -33.664202053489966,
        "lon": -126.41670610470473,
        "alt_km": 511.6593274597926,
        "timestamp": "2025-12-08T05:48:08.705688+00:00",
        "meta_object_name": "CO3D 1",
        "meta_object_id": "2025-156E",
        "meta_epoch": "2025-12-07T22:32:44.160864",
        "meta_mean_motion": 15.20215352,
        "meta_eccentricity": 9.975e-05,
        "meta_inclination": 97.4342,
        "meta_ra_of_asc_node": 58.2743,
        "meta_arg_of_pericenter": 105.5854,
        "meta_mean_anomaly": 254.5491,
        "meta_ephemeris_type": 0,
        "meta_classification_type": "U",
        "meta_norad_cat_id": 64903,
        "meta_element_set_no": 999,
        "meta_rev_at_epoch": 2047,
        "meta_bstar": 0.00038652623,
        "meta_mean_motion_dot": 8.312e-05,
        "meta_mean_motion_ddot": 0,
        "tle_line1": "1 64903U 25156E   25341.93940001  .00008312  00000+0  38653-3 0  9993",
        "tle_line2": "2 64903  97.4342  58.2743 0000997 105.5854 254.5491 15.20215352 20474"
      },
      "geometry": {
        "type": "Point",
        "coordinates": [
          -126.41670610470473,
          -33.664202053489966
        ]
      }
    },
    {
      "type": "Feature",
      "properties": {
        "norad_id": 66514,
        "name": "SENTINEL-6B",
        "group": "resource",
        "lat": -32.14417437955007,
        "lon": 8.025589714294211,
        "alt_km": 1320.5779224726139,
        "timestamp": "2025-12-08T05:48:08.705698+00:00",
        "meta_object_name": "SENTINEL-6B",
        "meta_object_id": "2025-264A",
        "meta_epoch": "2025-12-07T23:04:25.327200",
        "meta_mean_motion": 12.84031938,
        "meta_eccentricity": 0.0021041,
        "meta_inclination": 66.0386,
        "meta_ra_of_asc_node": 172.3856,
        "meta_arg_of_pericenter": 268.5107,
        "meta_mean_anomaly": 91.35,
        "meta_ephemeris_type": 0,
        "meta_classification_type": "U",
        "meta_norad_cat_id": 66514,
        "meta_element_set_no": 999,
        "meta_rev_at_epoch": 267,
        "meta_bstar": 0.00011848474,
        "meta_mean_motion_dot": -3.3e-07,
        "meta_mean_motion_ddot": 0,
        "tle_line1": "1 66514U 25264A   25341.96140425 -.00000033  00000+0  11848-3 0  9998",
        "tle_line2": "2 66514  66.0386 172.3856 0021041 268.5107  91.3500 12.84031938  2674"
      },
      "geometry": {
        "type": "Point",
        "coordinates": [
          8.025589714294211,
          -32.14417437955007
        ]
      }
    }
  ]
}